[{"OBJECT_NAME":"ONEWEB-0043","OBJECT_ID":"2020-008U","EPOCH":"2026-03-09T22:32:22.625664","MEAN_MOTION":13.10375574,"ECCENTRICITY":0.0001265,"INCLINATION":87.8781,"RA_OF_ASC_NODE":56.0239,"ARG_OF_PERICENTER":82.5703,"MEAN_ANOMALY":277.5569,"EPHEMERIS_TYPE":0,"CLASSIFICATION_TYPE":"U","NORAD_CAT_ID":45149,"ELEMENT_SET_NO":999,"REV_AT_EPOCH":29518,"BSTAR":0.0010916452,"MEAN_MOTION_DOT":3.94e-6,"MEAN_MOTION_DDOT":0},{"OBJECT_NAME":"CZ-6A DEB","OBJECT_ID":"2024-140AC","EPOCH":"2026-03-09T20:41:45.083040","MEAN_MOTION":13.25507823,"ECCENTRICITY":0.05429756,"INCLINATION":88.049,"RA_OF_ASC_NODE":240.2476,"ARG_OF_PERICENTER":36.2798,"MEAN_ANOMALY":327.3903,"EPHEMERIS_TYPE":0,"CLASSIFICATION_TYPE":"U","NORAD_CAT_ID":60627,"ELEMENT_SET_NO":999,"REV_AT_EPOCH":7668,"BSTAR":0.0001830396,"MEAN_MOTION_DOT":1.93e-6,"MEAN_MOTION_DDOT":0}]
